{"type": "FeatureCollection", "features": [{"type": "Feature", "properties": {"norad_id": 25590, "name": "COSMOS 2361", "group": "musson", "lat": 41.886492806419156, "lon": -6.139120800553129, "alt_km": 996.7533554314132, "timestamp": "2025-12-08T03:50:07.267010+00:00", "meta": {"OBJECT_NAME": "COSMOS 2361", "OBJECT_ID": "1998-076A", "EPOCH": "2025-12-07T06:41:46.983264", "MEAN_MOTION": 13.73216594, "ECCENTRICITY": 0.00300867, "INCLINATION": 82.9339, "RA_OF_ASC_NODE": 348.1256, "ARG_OF_PERICENTER": 281.4676, "MEAN_ANOMALY": 88.7971, "EPHEMERIS_TYPE": 0, "CLASSIFICATION_TYPE": "U", "NORAD_CAT_ID": 25590, "ELEMENT_SET_NO": 999, "REV_AT_EPOCH": 35036, "BSTAR": 8.4462006e-05, "MEAN_MOTION_DOT": 9.3e-07, "MEAN_MOTION_DDOT": 0}, "tle": {"line1": "1 25590U 98076A   25341.27901601  .00000093  00000+0  84462-4 0  9991", "line2": "2 25590  82.9339 348.1256 0030086 281.4676  88.7971 13.73216594350365"}}, "geometry": {"type": "Point", "coordinates": [-6.139120800553129, 41.886492806419156]}}, {"type": "Feature", "properties": {"norad_id": 26818, "name": "COSMOS 2378", "group": "musson", "lat": 78.43536790761637, "lon": 145.7710701755622, "alt_km": 988.7716500925299, "timestamp": "2025-12-08T03:50:07.267051+00:00", "meta": {"OBJECT_NAME": "COSMOS 2378", "OBJECT_ID": "2001-023A", "EPOCH": "2025-12-07T01:16:49.340640", "MEAN_MOTION": 13.74141321, "ECCENTRICITY": 0.00320941, "INCLINATION": 82.9275, "RA_OF_ASC_NODE": 3.9415, "ARG_OF_PERICENTER": 221.0369, "MEAN_ANOMALY": 167.976, "EPHEMERIS_TYPE": 0, "CLASSIFICATION_TYPE": "U", "NORAD_CAT_ID": 26818, "ELEMENT_SET_NO": 999, "REV_AT_EPOCH": 22845, "BSTAR": 7.1343665e-05, "MEAN_MOTION_DOT": 8.2e-07, "MEAN_MOTION_DDOT": 0}, "tle": {"line1": "1 26818U 01023A   25341.05334885  .00000082  00000+0  71344-4 0  9994", "line2": "2 26818  82.9275   3.9415 0032094 221.0369 167.9760 13.74141321228457"}}, "geometry": {"type": "Point", "coordinates": [145.7710701755622, 78.43536790761637]}}, {"type": "Feature", "properties": {"norad_id": 27436, "name": "COSMOS 2389", "group": "musson", "lat": -69.4380503779165, "lon": -68.88703643635996, "alt_km": 1016.6760634651164, "timestamp": "2025-12-08T03:50:07.267067+00:00", "meta": {"OBJECT_NAME": "COSMOS 2389", "OBJECT_ID": "2002-026A", "EPOCH": "2025-12-07T03:46:59.523168", "MEAN_MOTION": 13.75153827, "ECCENTRICITY": 0.0047738, "INCLINATION": 82.9497, "RA_OF_ASC_NODE": 311.1174, "ARG_OF_PERICENTER": 75.9061, "MEAN_ANOMALY": 295.3096, "EPHEMERIS_TYPE": 0, "CLASSIFICATION_TYPE": "U", "NORAD_CAT_ID": 27436, "ELEMENT_SET_NO": 999, "REV_AT_EPOCH": 18072, "BSTAR": 9.0493798e-05, "MEAN_MOTION_DOT": 1.03e-06, "MEAN_MOTION_DDOT": 0}, "tle": {"line1": "1 27436U 02026A   25341.15763337  .00000103  00000+0  90494-4 0  9995", "line2": "2 27436  82.9497 311.1174 0047738  75.9061 295.3096 13.75153827180722"}}, "geometry": {"type": "Point", "coordinates": [-68.88703643635996, -69.4380503779165]}}, {"type": "Feature", "properties": {"norad_id": 27818, "name": "COSMOS 2398", "group": "musson", "lat": -70.65951154714888, "lon": -104.57697734031468, "alt_km": 1021.2728896198196, "timestamp": "2025-12-08T03:50:07.267079+00:00", "meta": {"OBJECT_NAME": "COSMOS 2398", "OBJECT_ID": "2003-023A", "EPOCH": "2025-12-07T08:01:40.329120", "MEAN_MOTION": 13.72384834, "ECCENTRICITY": 0.00323842, "INCLINATION": 82.948, "RA_OF_ASC_NODE": 276.6815, "ARG_OF_PERICENTER": 126.2843, "MEAN_ANOMALY": 46.4754, "EPHEMERIS_TYPE": 0, "CLASSIFICATION_TYPE": "U", "NORAD_CAT_ID": 27818, "ELEMENT_SET_NO": 999, "REV_AT_EPOCH": 12742, "BSTAR": 8.0827629e-05, "MEAN_MOTION_DOT": 8.9e-07, "MEAN_MOTION_DDOT": 0}, "tle": {"line1": "1 27818U 03023A   25341.33449455  .00000089  00000+0  80828-4 0  9992", "line2": "2 27818  82.9480 276.6815 0032384 126.2843  46.4754 13.72384834127429"}}, "geometry": {"type": "Point", "coordinates": [-104.57697734031468, -70.65951154714888]}}, {"type": "Feature", "properties": {"norad_id": 28380, "name": "COSMOS 2407", "group": "musson", "lat": 58.21527154562331, "lon": -132.2161357477721, "alt_km": 941.8991875421862, "timestamp": "2025-12-08T03:50:07.267092+00:00", "meta": {"OBJECT_NAME": "COSMOS 2407", "OBJECT_ID": "2004-028A", "EPOCH": "2025-12-07T02:11:44.272032", "MEAN_MOTION": 13.7631273, "ECCENTRICITY": 0.00404792, "INCLINATION": 82.9614, "RA_OF_ASC_NODE": 217.0744, "ARG_OF_PERICENTER": 70.1604, "MEAN_ANOMALY": 98.6325, "EPHEMERIS_TYPE": 0, "CLASSIFICATION_TYPE": "U", "NORAD_CAT_ID": 28380, "ELEMENT_SET_NO": 999, "REV_AT_EPOCH": 7345, "BSTAR": 0.00010318611, "MEAN_MOTION_DOT": 1.17e-06, "MEAN_MOTION_DDOT": 0}, "tle": {"line1": "1 28380U 04028A   25341.09148463  .00000117  00000+0  10319-3 0  9990", "line2": "2 28380  82.9614 217.0744 0040479  70.1604  98.6325 13.76312730 73455"}}, "geometry": {"type": "Point", "coordinates": [-132.2161357477721, 58.21527154562331]}}, {"type": "Feature", "properties": {"norad_id": 28521, "name": "COSMOS 2414", "group": "musson", "lat": 47.94115835947486, "lon": 0.2395773967959142, "alt_km": 903.9898848509301, "timestamp": "2025-12-08T03:50:07.267110+00:00", "meta": {"OBJECT_NAME": "COSMOS 2414", "OBJECT_ID": "2005-002A", "EPOCH": "2025-12-07T01:15:02.816352", "MEAN_MOTION": 13.87901921, "ECCENTRICITY": 0.00405539, "INCLINATION": 82.9497, "RA_OF_ASC_NODE": 188.9606, "ARG_OF_PERICENTER": 155.675, "MEAN_ANOMALY": 204.634, "EPHEMERIS_TYPE": 0, "CLASSIFICATION_TYPE": "U", "NORAD_CAT_ID": 28521, "ELEMENT_SET_NO": 999, "REV_AT_EPOCH": 5716, "BSTAR": 9.2791976e-05, "MEAN_MOTION_DOT": 1.27e-06, "MEAN_MOTION_DDOT": 0}, "tle": {"line1": "1 28521U 05002A   25341.05211593  .00000127  00000+0  92792-4 0  9998", "line2": "2 28521  82.9497 188.9606 0040553 155.6750 204.6340 13.87901921 57162"}}, "geometry": {"type": "Point", "coordinates": [0.2395773967959142, 47.94115835947486]}}, {"type": "Feature", "properties": {"norad_id": 32052, "name": "COSMOS 2429", "group": "musson", "lat": 62.998768577599364, "lon": 152.69304886995252, "alt_km": 963.0078633603707, "timestamp": "2025-12-08T03:50:07.267124+00:00", "meta": {"OBJECT_NAME": "COSMOS 2429", "OBJECT_ID": "2007-038A", "EPOCH": "2025-12-07T06:19:17.458464", "MEAN_MOTION": 13.751486, "ECCENTRICITY": 0.00394888, "INCLINATION": 82.9803, "RA_OF_ASC_NODE": 347.3463, "ARG_OF_PERICENTER": 52.7714, "MEAN_ANOMALY": 307.7034, "EPHEMERIS_TYPE": 0, "CLASSIFICATION_TYPE": "U", "NORAD_CAT_ID": 32052, "ELEMENT_SET_NO": 999, "REV_AT_EPOCH": 91527, "BSTAR": 7.1082829e-05, "MEAN_MOTION_DOT": 8.4e-07, "MEAN_MOTION_DDOT": 0}, "tle": {"line1": "1 32052U 07038A   25341.26339651  .00000084  00000+0  71083-4 0  9994", "line2": "2 32052  82.9803 347.3463 0039488  52.7714 307.7034 13.75148600915275"}}, "geometry": {"type": "Point", "coordinates": [152.69304886995252, 62.998768577599364]}}, {"type": "Feature", "properties": {"norad_id": 35635, "name": "COSMOS 2454", "group": "musson", "lat": 30.918383546404534, "lon": -12.130161163702372, "alt_km": 920.3227973017592, "timestamp": "2025-12-08T03:50:07.267136+00:00", "meta": {"OBJECT_NAME": "COSMOS 2454", "OBJECT_ID": "2009-039A", "EPOCH": "2025-12-07T07:13:05.244096", "MEAN_MOTION": 13.89927659, "ECCENTRICITY": 0.00204884, "INCLINATION": 82.9557, "RA_OF_ASC_NODE": 172.768, "ARG_OF_PERICENTER": 88.2753, "MEAN_ANOMALY": 84.2311, "EPHEMERIS_TYPE": 0, "CLASSIFICATION_TYPE": "U", "NORAD_CAT_ID": 35635, "ELEMENT_SET_NO": 999, "REV_AT_EPOCH": 83074, "BSTAR": 7.7890277e-05, "MEAN_MOTION_DOT": 1.12e-06, "MEAN_MOTION_DDOT": 0}, "tle": {"line1": "1 35635U 09039A   25341.30075514  .00000112  00000+0  77890-4 0  9991", "line2": "2 35635  82.9557 172.7680 0020488  88.2753  84.2311 13.89927659830746"}}, "geometry": {"type": "Point", "coordinates": [-12.130161163702372, 30.918383546404534]}}, {"type": "Feature", "properties": {"norad_id": 36519, "name": "COSMOS 2463", "group": "musson", "lat": 49.733018600046634, "lon": -158.30759917933173, "alt_km": 1014.6081467398653, "timestamp": "2025-12-08T03:50:07.267146+00:00", "meta": {"OBJECT_NAME": "COSMOS 2463", "OBJECT_ID": "2010-017A", "EPOCH": "2025-12-06T22:17:11.124672", "MEAN_MOTION": 13.71648343, "ECCENTRICITY": 0.00349564, "INCLINATION": 82.9617, "RA_OF_ASC_NODE": 30.9827, "ARG_OF_PERICENTER": 304.7523, "MEAN_ANOMALY": 228.7937, "EPHEMERIS_TYPE": 0, "CLASSIFICATION_TYPE": "U", "NORAD_CAT_ID": 36519, "ELEMENT_SET_NO": 999, "REV_AT_EPOCH": 78157, "BSTAR": 8.2092979e-05, "MEAN_MOTION_DOT": 8.9e-07, "MEAN_MOTION_DDOT": 0}, "tle": {"line1": "1 36519U 10017A   25340.92860098  .00000089  00000+0  82093-4 0  9991", "line2": "2 36519  82.9617  30.9827 0034956 304.7523 228.7937 13.71648343781575"}}, "geometry": {"type": "Point", "coordinates": [-158.30759917933173, 49.733018600046634]}}]}